STARLINK-37589          
1 69839U 26154W   26198.58335648 -.00056550  00000+0 -28453-3 0  9998
2 69839  53.1588 280.8086 0001219  93.0870 273.3937 15.80896349  3021
STARLINK-37487          
1 69840U 26154X   26198.58335648 -.02071357  00000+0 -92195-2 0  9997
2 69840  53.1569 280.3552 0001005  75.3503 149.0974 15.86663877  3028
STARLINK-37433          
1 69841U 26154Y   26198.58335648 -.02202713  00000+0 -10618-1 0  9999
2 69841  53.1573 280.3425 0001232  79.8741 150.5830 15.85263412  3150
STARLINK-37588          
1 69842U 26154Z   26198.58335648 -.02283053  00000+0 -98570-2 0  9990
2 69842  53.1565 280.3255 0000842  71.5492 167.0396 15.87624157  3059
STARLINK-37579          
1 69843U 26154AA  26198.58335648 -.01734020  00000+0 -80747-2 0  9992
2 69843  53.1566 280.3167 0000961  70.3063 172.3787 15.85700115  3056
STARLINK-37584          
1 69844U 26154AB  26198.58335648 -.02252624  00000+0 -10636-1 0  9998
2 69844  53.1568 280.3046 0001107  87.1384 161.2293 15.85772414  3050
STARLINK-37606          
1 69845U 26154AC  26198.58335648 -.01786578  00000+0 -85176-2 0  9990
2 69845  53.1567 280.2946 0001046  76.5133 176.6528 15.85321195  3051
STARLINK-37603          
1 69846U 26154AD  26198.58335648 -.02157899  00000+0 -10475-1 0  9999
2 69846  53.1568 280.2821 0001099  83.3419 175.7227 15.85045803  3051
STARLINK-37595          
1 69847U 26154AE  26198.58335648 -.01888873  00000+0 -90813-2 0  9997
2 69847  53.1570 280.2714 0001115  82.3209 181.6231 15.84802731  3052
QIANFAN-219             
1 69848U 26155A   26198.53745340 -.01898484  00000+0 -91273+0 0  9995
2 69848  89.0059  60.6797 0028070 212.6325 147.3133 14.22527695  1715
QIANFAN-220             
1 69849U 26155B   26198.55409522 -.02080533  00000+0 -11423+1 0  9996
2 69849  89.0064  60.6826 0032363 204.9039 155.0589 14.15744704  1716
QIANFAN-221             
1 69850U 26155C   26198.53798914  .00000201  00000+0  76683-4 0  9995
2 69850  89.0064  60.6794 0030526 215.5843 144.3316 14.26647476  1711
QIANFAN-222             
1 69851U 26155D   26198.54944561 -.01925978  00000+0 -10089+1 0  9992
2 69851  89.0059  60.6812 0035207 211.5649 148.3428 14.17901638  1719
QIANFAN-223             
1 69852U 26155E   26198.61697401 -.01559901  00000+0 -83586+0 0  9999
2 69852  89.0060  60.6731 0034015 216.0636 143.8258 14.16525436  1723
QIANFAN-224             
1 69853U 26155F   26198.61424741 -.01811940  00000+0 -92389+0 0  9990
2 69853  89.0052  60.6717 0035084 216.7126 143.1661 14.19114061  1729
QIANFAN-225             
1 69854U 26155G   26198.61264166 -.01882661  00000+0 -97539+0 0  9994
2 69854  89.0058  60.6721 0034751 213.7006 146.1974 14.18412858  1729
QIANFAN-226             
1 69855U 26155H   26198.54239089  .00000051  00000+0  16302-4 0  9999
2 69855  89.0063  60.6800 0030266 215.6062 144.3110 14.22558689  1713
QIANFAN-227             
1 69856U 26155J   26198.53831164 -.02080548  00000+0 -10290+1 0  9990
2 69856  89.0057  60.6795 0028222 218.9645 140.9512 14.21399203  1714
QIANFAN-228             
1 69857U 26155K   26198.53749359 -.02002181  00000+0 -98694+0 0  9995
2 69857  89.0055  60.6803 0029210 218.7333 141.1764 14.21400385  1719
QIANFAN-229             
1 69858U 26155L   26198.53632181 -.01941522  00000+0 -92626+0 0  9999
2 69858  89.0058  60.6795 0026434 218.9241 141.0048 14.23045739  1712
QIANFAN-230             
1 69859U 26155M   26198.62214099 -.01973941  00000+0 -10560+1 0  9992
2 69859  89.0054  60.6730 0035444 218.8831 140.9807 14.16870886  1726
QIANFAN-231             
1 69860U 26155N   26198.60945985 -.01839640  00000+0 -89435+0 0  9990
2 69860  89.0060  60.6720 0029938 217.6602 142.2494 14.21789463  1721
QIANFAN-232             
1 69861U 26155P   26198.53598775 -.01422852  00000+0 -70358+0 0  9991
2 69861  89.0059  60.6791 0029111 225.5723 134.3086 14.20565832  1712
QIANFAN-233             
1 69862U 26155Q   26198.53593349 -.01910031  00000+0 -91228+0 0  9994
2 69862  89.0058  60.6794 0026923 219.4666 140.4566 14.22914198  1717
QIANFAN-234             
1 69863U 26155R   26198.60581220 -.01855389  00000+0 -89031+0 0  9991
2 69863  89.0059  60.6715 0028308 212.5440 147.4007 14.22536672  1720
QIANFAN-235             
1 69864U 26155S   26198.60585473 -.01883680  00000+0 -90184+0 0  9992
2 69864  89.0059  60.6713 0027763 211.6556 148.2967 14.22722244  1727
QIANFAN-236             
1 69865U 26155T   26198.60600575 -.01928470  00000+0 -92042+0 0  9996
2 69865  89.0058  60.6714 0026672 211.5422 148.4172 14.22993751  1720
QIANFAN-237             
1 69866U 26155U   26198.53550165 -.01853486  00000+0 -88841+0 0  9994
2 69866  89.0059  60.6793 0027578 217.6815 142.2445 14.22602425  1706
QIANFAN-238             
1 69867U 26155V   26198.53560933 -.01899706  00000+0 -90756+0 0  9992
2 69867  89.0059  60.6794 0026757 218.1494 141.7804 14.22882723  1710
