OBJECT_NAME,OBJECT_ID,EPOCH,MEAN_MOTION,ECCENTRICITY,INCLINATION,RA_OF_ASC_NODE,ARG_OF_PERICENTER,MEAN_ANOMALY,EPHEMERIS_TYPE,CLASSIFICATION_TYPE,NORAD_CAT_ID,ELEMENT_SET_NO,REV_AT_EPOCH,BSTAR,MEAN_MOTION_DOT,MEAN_MOTION_DDOT
STARLINK-37589,2026-154W,2026-07-17T14:00:01.999872,15.80896349,.0001219,53.1588,280.8086,93.0870,273.3937,0,U,69839,999,302,-.28452535E-3,-.5655E-3,0
STARLINK-37487,2026-154X,2026-07-17T14:00:01.999872,15.86663877,.00010051,53.1569,280.3552,75.3503,149.0974,0,U,69840,999,302,-.92194505E-2,-.2071357E-1,0
STARLINK-37433,2026-154Y,2026-07-17T14:00:01.999872,15.85263412,.00012328,53.1573,280.3425,79.8741,150.5830,0,U,69841,999,315,-.10618338E-1,-.2202713E-1,0
STARLINK-37588,2026-154Z,2026-07-17T14:00:01.999872,15.87624157,.00008424,53.1565,280.3255,71.5492,167.0396,0,U,69842,999,305,-.98569707E-2,-.2283053E-1,0
STARLINK-37579,2026-154AA,2026-07-17T14:00:01.999872,15.85700115,.00009615,53.1566,280.3167,70.3063,172.3787,0,U,69843,999,305,-.80746862E-2,-.173402E-1,0
STARLINK-37584,2026-154AB,2026-07-17T14:00:01.999872,15.85772414,.00011074,53.1568,280.3046,87.1384,161.2293,0,U,69844,999,305,-.10636347E-1,-.2252624E-1,0
STARLINK-37606,2026-154AC,2026-07-17T14:00:01.999872,15.85321195,.00010467,53.1567,280.2946,76.5133,176.6528,0,U,69845,999,305,-.85175844E-2,-.1786578E-1,0
STARLINK-37603,2026-154AD,2026-07-17T14:00:01.999872,15.85045803,.00010993,53.1568,280.2821,83.3419,175.7227,0,U,69846,999,305,-.10475401E-1,-.2157899E-1,0
STARLINK-37595,2026-154AE,2026-07-17T14:00:01.999872,15.84802731,.0001115,53.1570,280.2714,82.3209,181.6231,0,U,69847,999,305,-.90812788E-2,-.1888873E-1,0
QIANFAN-219,2026-155A,2026-07-17T12:53:55.973760,14.22527695,.00280704,89.0059,60.6797,212.6325,147.3133,0,U,69848,999,171,-.912725E+0,-.1898484E-1,0
QIANFAN-220,2026-155B,2026-07-17T13:17:53.827008,14.15744704,.00323633,89.0064,60.6826,204.9039,155.0589,0,U,69849,999,171,-.11423133E+1,-.2080533E-1,0
QIANFAN-221,2026-155C,2026-07-17T12:54:42.261696,14.26647476,.0030526,89.0064,60.6794,215.5843,144.3316,0,U,69850,999,171,.76683491E-4,.201E-5,0
QIANFAN-222,2026-155D,2026-07-17T13:11:12.100704,14.17901638,.0035207,89.0059,60.6812,211.5649,148.3428,0,U,69851,999,171,-.10089287E+1,-.1925978E-1,0
QIANFAN-223,2026-155E,2026-07-17T14:48:26.554464,14.16525436,.00340158,89.0060,60.6731,216.0636,143.8258,0,U,69852,999,172,-.83585693E+0,-.1559901E-1,0
QIANFAN-224,2026-155F,2026-07-17T14:44:30.976224,14.19114061,.00350846,89.0052,60.6717,216.7126,143.1661,0,U,69853,999,172,-.92388594E+0,-.181194E-1,0
QIANFAN-225,2026-155G,2026-07-17T14:42:12.239424,14.18412858,.00347514,89.0058,60.6721,213.7006,146.1974,0,U,69854,999,172,-.97539121E+0,-.1882661E-1,0
QIANFAN-226,2026-155H,2026-07-17T13:01:02.572896,14.22558689,.00302665,89.0063,60.6800,215.6062,144.3110,0,U,69855,999,171,.16301909E-4,.51E-6,0
QIANFAN-227,2026-155J,2026-07-17T12:55:10.125696,14.21399203,.0028222,89.0057,60.6795,218.9645,140.9512,0,U,69856,999,171,-.10289996E+1,-.2080548E-1,0
QIANFAN-228,2026-155K,2026-07-17T12:53:59.446176,14.21400385,.00292103,89.0055,60.6803,218.7333,141.1764,0,U,69857,999,171,-.98693693E+0,-.2002181E-1,0
QIANFAN-229,2026-155L,2026-07-17T12:52:18.204384,14.23045739,.00264349,89.0058,60.6795,218.9241,141.0048,0,U,69858,999,171,-.92626083E+0,-.1941522E-1,0
QIANFAN-230,2026-155M,2026-07-17T14:55:52.981536,14.16870886,.00354442,89.0054,60.6730,218.8831,140.9807,0,U,69859,999,172,-.10559732E+1,-.1973941E-1,0
QIANFAN-231,2026-155N,2026-07-17T14:37:37.331040,14.21789463,.00299386,89.0060,60.6720,217.6602,142.2494,0,U,69860,999,172,-.89434941E+0,-.183964E-1,0
QIANFAN-232,2026-155P,2026-07-17T12:51:49.341600,14.20565832,.00291114,89.0059,60.6791,225.5723,134.3086,0,U,69861,999,171,-.7035788E+0,-.1422852E-1,0
QIANFAN-233,2026-155Q,2026-07-17T12:51:44.653536,14.22914198,.00269231,89.0058,60.6794,219.4666,140.4566,0,U,69862,999,171,-.91227631E+0,-.1910031E-1,0
QIANFAN-234,2026-155R,2026-07-17T14:32:22.174080,14.22536672,.00283082,89.0059,60.6715,212.5440,147.4007,0,U,69863,999,172,-.89030807E+0,-.1855389E-1,0
QIANFAN-235,2026-155S,2026-07-17T14:32:25.848672,14.22722244,.00277632,89.0059,60.6713,211.6556,148.2967,0,U,69864,999,172,-.90183713E+0,-.188368E-1,0
QIANFAN-236,2026-155T,2026-07-17T14:32:38.896800,14.22993751,.00266729,89.0058,60.6714,211.5422,148.4172,0,U,69865,999,172,-.9204158E+0,-.192847E-1,0
QIANFAN-237,2026-155U,2026-07-17T12:51:07.342560,14.22602425,.00275786,89.0059,60.6793,217.6815,142.2445,0,U,69866,999,170,-.88840732E+0,-.1853486E-1,0
QIANFAN-238,2026-155V,2026-07-17T12:51:16.646112,14.22882723,.00267577,89.0059,60.6794,218.1494,141.7804,0,U,69867,999,171,-.90756499E+0,-.1899706E-1,0
